{
    "links": {
        "self": "http://www.neowsapp.com/rest/v1/neo/3445072?api_key=iIulBulltgU6a56xZRHN4H3l9WmuAYTsLGpBGhQ2"
    },
    "id": "3445072",
    "neo_reference_id": "3445072",
    "name": "(2009 BG58)",
    "designation": "2009 BG58",
    "nasa_jpl_url": "http://ssd.jpl.nasa.gov/sbdb.cgi?sstr=3445072",
    "absolute_magnitude_h": 26.0,
    "estimated_diameter": {
        "kilometers": {
            "estimated_diameter_min": 0.0167708462,
            "estimated_diameter_max": 0.0375007522
        },
        "meters": {
            "estimated_diameter_min": 16.7708462163,
            "estimated_diameter_max": 37.5007521798
        },
        "miles": {
            "estimated_diameter_min": 0.0104209175,
            "estimated_diameter_max": 0.0233018799
        },
        "feet": {
            "estimated_diameter_min": 55.0224631002,
            "estimated_diameter_max": 123.0339677816
        }
    },
    "is_potentially_hazardous_asteroid": false,
    "close_approach_data": [
        {
            "close_approach_date": "2009-01-24",
            "close_approach_date_full": "2009-Jan-24 10:36",
            "epoch_date_close_approach": 1232793360000,
            "relative_velocity": {
                "kilometers_per_second": "7.2090888809",
                "kilometers_per_hour": "25952.7199712497",
                "miles_per_hour": "16126.0109176912"
            },
            "miss_distance": {
                "astronomical": "0.0162334456",
                "lunar": "6.3148103384",
                "kilometers": "2428488.884520872",
                "miles": "1508993.0199051536"
            },
            "orbiting_body": "Earth"
        }
    ],
    "orbital_data": {
        "orbit_id": "11",
        "orbit_determination_date": "2017-04-06 09:01:32",
        "first_observation_date": "2009-01-28",
        "last_observation_date": "2009-02-20",
        "data_arc_in_days": 23,
        "observations_used": 64,
        "orbit_uncertainty": "7",
        "minimum_orbit_intersection": ".013928",
        "jupiter_tisserand_invariant": "3.630",
        "epoch_osculation": "2459000.5",
        "eccentricity": ".5109258877516862",
        "semi_major_axis": "2.033234913005155",
        "inclination": "4.998719761426651",
        "ascending_node_longitude": "125.0651613309645",
        "orbital_period": "1058.960508813975",
        "perihelion_distance": ".9944025600702738",
        "perihelion_argument": "349.3729303073511",
        "aphelion_distance": "3.072067265940037",
        "perihelion_time": "2459085.611508870586",
        "mean_anomaly": "331.0658301812144",
        "mean_motion": ".3399560200816141",
        "equinox": "J2000",
        "orbit_class": {
            "orbit_class_type": "APO",
            "orbit_class_description": "Near-Earth asteroid orbits which cross the Earth’s orbit similar to that of 1862 Apollo",
            "orbit_class_range": "a (semi-major axis) > 1.0 AU; q (perihelion) < 1.017 AU"
        }
    },
    "is_sentry_object": false
}